COMMENT,ORIGINATOR,NORAD_CAT_ID,OBJECT_NAME,OBJECT_TYPE,CLASSIFICATION_TYPE,INTLDES,EPOCH,EPOCH_MICROSECONDS,MEAN_MOTION,ECCENTRICITY,INCLINATION,RA_OF_ASC_NODE,ARG_OF_PERICENTER,MEAN_ANOMALY,EPHEMERIS_TYPE,ELEMENT_SET_NO,REV_AT_EPOCH,BSTAR,MEAN_MOTION_DOT,MEAN_MOTION_DDOT,FILE,TLE_LINE0,TLE_LINE1,TLE_LINE2,OBJECT_ID,OBJECT_NUMBER,SEMIMAJOR_AXIS,PERIOD,APOGEE,PERIGEE,DECAYED
GENERATED VIA SPACETRACK.ORG API,18 SPCS,26998,TIMED,PAYLOAD,U,01055B,11/3/24 12:36,811616,14.92547449,0.0002752,74.0712,342.1683,308.4014,51.6922,0,999,24260,0.00057806,0.00005909,0,4542611,0 TIMED,1 26998U 01055B   24308.52568069  .00005909  00000-0  57806-3 0  9995,2 26998  74.0712 342.1683 0002752 308.4014  51.6922 14.92547449242608,2001-055B,26998,6968.133,96.479,591.915,588.08,0
GENERATED VIA SPACETRACK.ORG API,18 SPCS,26998,TIMED,PAYLOAD,U,01055B,11/3/24 12:36,811616,14.92547449,0.0002752,74.0712,342.1683,308.4014,51.6922,0,999,24274,0.00057806,0.00005909,0,4542739,0 TIMED,1 26998U 01055B   24308.52568069  .00005909  00000-0  57806-3 0  9995,2 26998  74.0712 342.1683 0002752 308.4014  51.6922 14.92547449242743,2001-055B,26998,6968.133,96.479,591.915,588.08,0
GENERATED VIA SPACETRACK.ORG API,18 SPCS,26998,TIMED,PAYLOAD,U,01055B,11/4/24 12:44,665024,14.92559155,0.0002778,74.0711,340.1525,307.1368,52.9561,0,999,24275,0.00050927,0.00005202,0,4543735,0 TIMED,1 26998U 01055B   24309.53109566  .00005202  00000-0  50927-3 0  9993,2 26998  74.0711 340.1525 0002778 307.1368  52.9561 14.92559155242752,2001-055B,26998,6968.096,96.479,591.897,588.025,0
GENERATED VIA SPACETRACK.ORG API,18 SPCS,26998,TIMED,PAYLOAD,U,01055B,11/4/24 19:10,316320,14.92561921,0.0002788,74.0712,339.6149,306.7111,53.3816,0,999,24293,0.00049274,0.00005033,0,4543787,0 TIMED,1 26998U 01055B   24309.79920505  .00005033  00000-0  49274-3 0  9990,2 26998  74.0712 339.6149 0002788 306.7111  53.3816 14.92561921242932,2001-055B,26998,6968.088,96.478,591.895,588.01,0
GENERATED VIA SPACETRACK.ORG API,18 SPCS,26998,TIMED,PAYLOAD,U,01055B,11/4/24 19:10,316320,14.92561921,0.0002788,74.0712,339.6149,306.7111,53.3816,0,999,24279,0.00049274,0.00005033,0,4544013,0 TIMED,1 26998U 01055B   24309.79920505  .00005033  00000-0  49274-3 0  9990,2 26998  74.0712 339.6149 0002788 306.7111  53.3816 14.92561921242796,2001-055B,26998,6968.088,96.478,591.895,588.01,0
GENERATED VIA SPACETRACK.ORG API,18 SPCS,26998,TIMED,PAYLOAD,U,01055B,11/5/24 12:52,895488,14.92569344,0.0002805,74.0712,338.1366,305.9475,54.1447,0,999,24290,0.00044479,0.0000454,0,4544736,0 TIMED,1 26998U 01055B   24310.53650342  .00004540  00000-0  44479-3 0  9997,2 26998  74.0712 338.1366 0002805 305.9475  54.1447 14.92569344242904,2001-055B,26998,6968.065,96.478,591.884,587.975,0
GENERATED VIA SPACETRACK.ORG API,18 SPCS,26998,TIMED,PAYLOAD,U,01055B,11/6/24 3:21,968000,14.92575272,0.0002837,74.0712,336.9271,305.6111,54.4808,0,999,24313,0.00044007,0.00004492,0,4545113,0 TIMED,1 26998U 01055B   24311.13974500  .00004492  00000-0  44007-3 0  9992,2 26998  74.0712 336.9271 0002837 305.6111  54.4808 14.92575272243131,2001-055B,26998,6968.046,96.478,591.888,587.934,0
GENERATED VIA SPACETRACK.ORG API,18 SPCS,26998,TIMED,PAYLOAD,U,01055B,11/6/24 13:00,560896,14.92581156,0.0002865,74.0711,336.1208,305.2983,54.7931,0,999,24305,0.00053119,0.00005431,0,4545811,0 TIMED,1 26998U 01055B   24311.54190464  .00005431  00000-0  53119-3 0  9994,2 26998  74.0711 336.1208 0002865 305.2983  54.7931 14.92581156243055,2001-055B,26998,6968.028,96.477,591.889,587.896,0
GENERATED VIA SPACETRACK.ORG API,18 SPCS,26998,TIMED,PAYLOAD,U,01055B,11/6/24 19:26,895968,14.9258403,0.0002868,74.0712,335.5832,304.7822,55.3091,0,999,24309,0.00054723,0.00005597,0,4546162,0 TIMED,1 26998U 01055B   24311.81001037  .00005597  00000-0  54723-3 0  9996,2 26998  74.0712 335.5832 0002868 304.7822  55.3091 14.92584030243093,2001-055B,26998,6968.019,96.477,591.882,587.885,0
GENERATED VIA SPACETRACK.ORG API,18 SPCS,26998,TIMED,PAYLOAD,U,01055B,11/7/24 9:55,455264,14.92590253,0.0002915,74.0711,334.3739,304.4021,55.6886,0,999,24318,0.00051926,0.0000531,0,4546484,0 TIMED,1 26998U 01055B   24312.41324601  .00005310  00000-0  51926-3 0  9993,2 26998  74.0711 334.3739 0002915 304.4021  55.6886 14.92590253243185,2001-055B,26998,6967.999,96.477,591.896,587.833,0
GENERATED VIA SPACETRACK.ORG API,18 SPCS,26998,TIMED,PAYLOAD,U,01055B,11/7/24 9:55,455264,14.92590253,0.0002915,74.0711,334.3739,304.4021,55.6886,0,999,24332,0.00051926,0.0000531,0,4546591,0 TIMED,1 26998U 01055B   24312.41324601  .00005310  00000-0  51926-3 0  9993,2 26998  74.0711 334.3739 0002915 304.4021  55.6886 14.92590253243321,2001-055B,26998,6967.999,96.477,591.896,587.833,0
GENERATED VIA SPACETRACK.ORG API,18 SPCS,26998,TIMED,PAYLOAD,U,01055B,11/8/24 11:39,868480,14.9260248,0.0002938,74.0711,332.2237,302.7509,57.339,0,999,24348,0.00051714,0.00005289,0,4547389,0 TIMED,1 26998U 01055B   24313.48565820  .00005289  00000-0  51714-3 0  9991,2 26998  74.0711 332.2237 0002938 302.7509  57.3390 14.92602480243480,2001-055B,26998,6967.961,96.476,591.874,587.779,0
GENERATED VIA SPACETRACK.ORG API,18 SPCS,26998,TIMED,PAYLOAD,U,01055B,11/8/24 11:39,868480,14.9260248,0.0002938,74.0711,332.2237,302.7509,57.339,0,999,24334,0.00051714,0.00005289,0,4547960,0 TIMED,1 26998U 01055B   24313.48565820  .00005289  00000-0  51714-3 0  9991,2 26998  74.0711 332.2237 0002938 302.7509  57.3390 14.92602480243345,2001-055B,26998,6967.961,96.476,591.874,587.779,0
GENERATED VIA SPACETRACK.ORG API,18 SPCS,26998,TIMED,PAYLOAD,U,01055B,11/9/24 11:47,665920,14.92613516,0.0002982,74.071,330.208,301.6015,58.4877,0,999,24363,0.00054511,0.00005579,0,4548434,0 TIMED,1 26998U 01055B   24314.49103780  .00005579  00000-0  54511-3 0  9996,2 26998  74.0710 330.2080 0002982 301.6015  58.4877 14.92613516243633,2001-055B,26998,6967.927,96.475,591.87,587.714,0
GENERATED VIA SPACETRACK.ORG API,18 SPCS,26998,TIMED,PAYLOAD,U,01055B,11/9/24 11:47,665920,14.92613516,0.0002982,74.071,330.208,301.6015,58.4877,0,999,24349,0.00054511,0.00005579,0,4548669,0 TIMED,1 26998U 01055B   24314.49103780  .00005579  00000-0  54511-3 0  9996,2 26998  74.0710 330.2080 0002982 301.6015  58.4877 14.92613516243497,2001-055B,26998,6967.927,96.475,591.87,587.714,0
GENERATED VIA SPACETRACK.ORG API,18 SPCS,26998,TIMED,PAYLOAD,U,01055B,11/9/24 18:13,397056,14.92620242,0.0002977,74.071,329.6705,300.9378,59.1512,0,999,24353,0.00069702,0.00007148,0,4549171,0 TIMED,1 26998U 01055B   24314.75913654  .00007148  00000-0  69702-3 0  9996,2 26998  74.0710 329.6705 0002977 300.9378  59.1512 14.92620242243534,2001-055B,26998,6967.906,96.475,591.845,587.697,0
GENERATED VIA SPACETRACK.ORG API,18 SPCS,26998,TIMED,PAYLOAD,U,01055B,11/10/24 10:18,882144,14.92623947,0.0002987,74.071,328.3268,300.3705,59.7182,0,999,24363,0.00056496,0.00005786,0,4549736,0 TIMED,1 26998U 01055B   24315.42938521  .00005786  00000-0  56496-3 0  9993,2 26998  74.0710 328.3268 0002987 300.3705  59.7182 14.92623947243638,2001-055B,26998,6967.895,96.474,591.841,587.678,0
GENERATED VIA SPACETRACK.ORG API,18 SPCS,26998,TIMED,PAYLOAD,U,01055B,11/10/24 18:20,505888,14.92625505,0.0002999,74.0709,327.6549,299.8728,60.2156,0,999,24382,0.00048672,0.00004979,0,4549855,0 TIMED,1 26998U 01055B   24315.76450817  .00004979  00000-0  48672-3 0  9997,2 26998  74.0709 327.6549 0002999 299.8728  60.2156 14.92625505243821,2001-055B,26998,6967.89,96.474,591.844,587.665,0
GENERATED VIA SPACETRACK.ORG API,18 SPCS,26998,TIMED,PAYLOAD,U,01055B,11/10/24 18:20,505888,14.92625505,0.0002999,74.0709,327.6549,299.8728,60.2156,0,999,24368,0.00048672,0.00004979,0,4550087,0 TIMED,1 26998U 01055B   24315.76450817  .00004979  00000-0  48672-3 0  9997,2 26998  74.0709 327.6549 0002999 299.8728  60.2156 14.92625505243685,2001-055B,26998,6967.89,96.474,591.844,587.665,0
GENERATED VIA SPACETRACK.ORG API,18 SPCS,26998,TIMED,PAYLOAD,U,01055B,11/11/24 10:26,529600,14.92632619,0.0003004,74.0708,326.3111,299.0815,61.0067,0,999,24378,0.00049806,0.00005096,0,4550681,0 TIMED,1 26998U 01055B   24316.43475150  .00005096  00000-0  49806-3 0  9990,2 26998  74.0708 326.3111 0003004 299.0815  61.0067 14.92632619243787,2001-055B,26998,6967.868,96.474,591.826,587.639,0
GENERATED VIA SPACETRACK.ORG API,18 SPCS,26998,TIMED,PAYLOAD,U,01055B,11/11/24 18:28,949440,14.9263526,0.0003009,74.0707,325.6392,298.4532,61.6347,0,999,24397,0.00047422,0.00004851,0,4550776,0 TIMED,1 26998U 01055B   24316.76987210  .00004851  00000-0  47422-3 0  9991,2 26998  74.0707 325.6392 0003009 298.4532  61.6347 14.92635260243976,2001-055B,26998,6967.859,96.474,591.821,587.628,0
GENERATED VIA SPACETRACK.ORG API,18 SPCS,26998,TIMED,PAYLOAD,U,01055B,11/12/24 10:33,673344,14.92639593,0.0003025,74.0704,324.2953,297.9807,62.1069,0,999,24393,0.00040614,0.00004149,0,4551714,0 TIMED,1 26998U 01055B   24317.44011196  .00004149  00000-0  40614-3 0  9994,2 26998  74.0704 324.2953 0003025 297.9807  62.1069 14.92639593243934,2001-055B,26998,6967.846,96.473,591.819,587.603,0
GENERATED VIA SPACETRACK.ORG API,18 SPCS,26998,TIMED,PAYLOAD,U,01055B,11/12/24 18:36,952352,14.92642393,0.0003027,74.0703,323.6234,297.5767,62.5108,0,999,24412,0.0004035,0.00004122,0,4551847,0 TIMED,1 26998U 01055B   24317.77523093  .00004122  00000-0  40350-3 0  9992,2 26998  74.0703 323.6234 0003027 297.5767  62.5108 14.92642393244123,2001-055B,26998,6967.837,96.473,591.811,587.593,0
GENERATED VIA SPACETRACK.ORG API,18 SPCS,26998,TIMED,PAYLOAD,U,01055B,11/12/24 23:25,481568,14.92643188,0.0003025,74.0702,323.2202,297.1837,62.9038,0,999,24401,0.00035727,0.00003645,0,4552057,0 TIMED,1 26998U 01055B   24317.97630187  .00003645  00000-0  35727-3 0  9998,2 26998  74.0702 323.2202 0003025 297.1837  62.9038 14.92643188244012,2001-055B,26998,6967.835,96.473,591.807,587.592,0
